CUTE-1 (CO-55)          
1 27844U 03031E   26175.97519230  .00000261  00000+0  13189-3 0  9992
2 27844  98.6736 184.4362 0010007 156.0422 204.1225 14.24339992192781
CUBESAT XI-IV (CO-57)   
1 27848U 03031J   26175.96755847  .00000227  00000+0  11865-3 0  9992
2 27848  98.6767 184.1351 0009537 174.0960 186.0333 14.23624582192483
CUBESAT XI-V            
1 28895U 05043F   26175.26515780  .00001196  00000+0  19578-3 0  9998
2 28895  98.2991 331.0356 0014129 178.0583 182.0681 14.72647893102798
CUTE-1.7+APD II (CO-65) 
1 32785U 08021C   26176.20348299  .00005562  00000+0  35067-3 0  9996
2 32785  97.8276 157.7888 0008998  15.0140 345.1353 15.09522910986400
CANX-2                  
1 32790U 08021H   26176.19675772  .00003796  00000+0  26695-3 0  9993
2 32790  97.8640 156.1303 0011013  27.6807 332.5003 15.05671876986018
SEEDS II (CO-66)        
1 32791U 08021J   26175.96907043  .00019623  00000+0  61750-3 0  9994
2 32791  97.7519 174.2392 0000309 241.1908 118.9302 15.32990296988484
SWISSCUBE               
1 35932U 09051B   26175.01037925  .00000754  00000+0  15859-3 0  9991
2 35932  98.4031  83.0175 0006447 180.0638 180.0563 14.62492428890158
BEESAT-1                
1 35933U 09051C   26174.20193553  .00000616  00000+0  13339-3 0  9990
2 35933  98.3960  81.8178 0004598 195.0342 165.0722 14.61728503890066
ITUPSAT1                
1 35935U 09051E   26175.29429429  .00000610  00000+0  13593-3 0  9992
2 35935  98.4043  82.1112 0006604 208.5040 151.5799 14.60449650889770
TISAT 1                 
1 36799U 10035E   26174.58415258  .00016171  00000+0  52704-3 0  9997
2 36799  98.0701 121.7012 0002267 156.7166 203.4177 15.31915093868681
AEROCUBE 4.5A           
1 38767U 12048K   26174.91413096  .00746261  27868-3  11544-2 0  9996
2 38767  64.6226   2.1131 0017982 241.2267 118.7093 16.03601761373731
STRAND-1                
1 39090U 13009E   26175.92326148  .00000262  00000+0  10254-3 0  9994
2 39090  98.3924 355.9672 0008147 200.1736 159.9130 14.37167384698177
BRITE-AUSTRIA           
1 39091U 13009F   26176.07878522  .00000166  00000+0  71218-4 0  9991
2 39091  98.3998 355.3192 0009524 210.7244 149.3386 14.36544953698188
NEE-01 PEGASO           
1 39151U 13018B   26174.36171417  .00002326  00000+0  22542-3 0  9992
2 39151  98.1232 318.7162 0013528 139.4082 220.8148 14.93689152711620
POPACS 2                
1 39269U 13055E   26175.15484747  .00013923  00000+0  23420-3 0  9995
2 39269  80.9903 136.2157 0416580 171.3952 189.4713 14.91375179664250
POPACS 3                
1 39270U 13055F   26174.85310494  .00008797  00000+0  20710-3 0  9992
2 39270  81.0000 221.9595 0551484  49.7042 315.1016 14.56228835639524
ZACUBE-1 (TSHEPISOSAT)  
1 39417U 13066B   26176.13923660  .00003058  00000+0  23876-3 0  9996
2 39417  97.8051 138.5170 0041882 220.5392 139.2711 15.01227073681925
WNISAT-1                
1 39423U 13066H   26176.17172689  .00001048  00000+0  19904-3 0  9998
2 39423  97.7209 324.7616 0162450 206.2999 152.9888 14.58076379667898
TRITON-1                
1 39427U 13066M   26176.12923293  .00002009  00000+0  24489-3 0  9994
2 39427  97.8240  85.7550 0088901 207.6027 152.0452 14.81729914675268
GOMX-1                  
1 39430U 13066Q   26176.15279361  .00001495  00000+0  22914-3 0  9990
2 39430  97.6486  16.1126 0129890  52.2580 309.0313 14.69483868671087
CUBEBUG-2 (LO-74)       
1 39440U 13066AA  26175.16357250  .00003255  00000+0  30265-3 0  9999
2 39440  97.8904 124.1710 0057788   6.1369 354.0545 14.93813506678035
NEE-02 KRYSAOR          
1 39441U 13066AB  26176.08412519  .00002270  00000+0  25172-3 0  9999
2 39441  97.8895 115.2423 0067265  44.8381 315.8242 14.86650633677378
FUNCUBE-1 (AO-73)       
1 39444U 13066AE  26174.48649236  .00004811  00000+0  29949-3 0  9991
2 39444  97.8270 146.0634 0036320 179.4025 180.7253 15.09547873680611
UWE-3                   
1 39446U 13066AG  26174.83273869  .00003944  00000+0  33997-3 0  9991
2 39446  97.8705 130.9512 0046882 298.7267  60.9247 14.97073410678571
BRITE-CA1 (TORONTO)     
1 40020U 14033L   26175.30784024  .00000675  00000+0  10925-3 0  9993
2 40020  97.9746 304.1047 0077264 253.8059 105.4636 14.72685913643269
DUCHIFAT-1              
1 40021U 14033M   26175.11803071  .00103515  00000+0  10097-2 0  9993
2 40021  98.0460 235.2586 0001858 108.0960 252.0500 15.65879628656832
NANOSATC-BR1            
1 40024U 14033Q   26176.04552821  .00019914  00000+0  65250-3 0  9994
2 40024  98.0726 209.1307 0005014 143.6872 216.4709 15.31685153655189
QB50P1                  
1 40025U 14033R   26175.99266347  .00008784  00000+0  43065-3 0  9996
2 40025  98.0964 187.6859 0008613 187.2704 172.8404 15.18365172654213
QB50P2                  
1 40032U 14033Y   26175.95876876  .00007264  00000+0  38983-3 0  9999
2 40032  98.0752 173.3228 0008702 139.9973 220.1900 15.15247970653847
PERSEUS-M2              
1 40037U 14033AD  26176.15893990  .00002034  00000+0  18889-3 0  9996
2 40037  97.9971 126.8611 0009949 275.3249  84.6836 14.95537664651979
